{
  "type": "FeatureCollection",
  "features": [
    {
      "type": "Feature",
      "properties": {
        "norad_id": 66594,
        "name": "STARLINK-36032",
        "group": "last-30-days",
        "lat": 19.576041306500546,
        "lon": -86.2003720308293,
        "alt_km": 330.72033609826303,
        "timestamp": "2025-12-02T21:34:00.043530+00:00",
        "meta_object_name": "STARLINK-36032",
        "meta_object_id": "2025-270G",
        "meta_epoch": "2025-12-02T12:00:05.998752",
        "meta_mean_motion": 15.80584085,
        "meta_eccentricity": 0.0001711,
        "meta_inclination": 42.9989,
        "meta_ra_of_asc_node": 253.7999,
        "meta_arg_of_pericenter": 254.1499,
        "meta_mean_anomaly": 25.8792,
        "meta_ephemeris_type": 0,
        "meta_classification_type": "U",
        "meta_norad_cat_id": 66594,
        "meta_element_set_no": 999,
        "meta_rev_at_epoch": 249,
        "meta_bstar": -0.0097032,
        "meta_mean_motion_dot": -0.01660941,
        "meta_mean_motion_ddot": 0,
        "tle_line1": "1 66594U 25270G   25336.50006943 -.01660941  00000+0 -97032-2 0  9993",
        "tle_line2": "2 66594  42.9989 253.7999 0001711 254.1499  25.8792 15.80584085  2493"
      },
      "geometry": {
        "type": "Point",
        "coordinates": [
          -86.2003720308293,
          19.576041306500546
        ]
      }
    },
    {
      "type": "Feature",
      "properties": {
        "norad_id": 66595,
        "name": "STARLINK-35711",
        "group": "last-30-days",
        "lat": 20.915609845228662,
        "lon": -84.42711957973772,
        "alt_km": 330.54002725744795,
        "timestamp": "2025-12-02T21:34:00.043540+00:00",
        "meta_object_name": "STARLINK-35711",
        "meta_object_id": "2025-270H",
        "meta_epoch": "2025-12-02T12:00:05.998752",
        "meta_mean_motion": 15.80556312,
        "meta_eccentricity": 0.0001797,
        "meta_inclination": 42.9989,
        "meta_ra_of_asc_node": 253.7943,
        "meta_arg_of_pericenter": 261.399,
        "meta_mean_anomaly": 20.8139,
        "meta_ephemeris_type": 0,
        "meta_classification_type": "U",
        "meta_norad_cat_id": 66595,
        "meta_element_set_no": 999,
        "meta_rev_at_epoch": 286,
        "meta_bstar": -0.009791,
        "meta_mean_motion_dot": -0.01672116,
        "meta_mean_motion_ddot": 0,
        "tle_line1": "1 66595U 25270H   25336.50006943 -.01672116  00000+0 -97910-2 0  9996",
        "tle_line2": "2 66595  42.9989 253.7943 0001797 261.3990  20.8139 15.80556312  2866"
      },
      "geometry": {
        "type": "Point",
        "coordinates": [
          -84.42711957973772,
          20.915609845228662
        ]
      }
    },
    {
      "type": "Feature",
      "properties": {
        "norad_id": 66596,
        "name": "STARLINK-35811",
        "group": "last-30-days",
        "lat": 22.200027404277755,
        "lon": -82.6724038366711,
        "alt_km": 330.3984615002246,
        "timestamp": "2025-12-02T21:34:00.043550+00:00",
        "meta_object_name": "STARLINK-35811",
        "meta_object_id": "2025-270J",
        "meta_epoch": "2025-12-02T12:00:05.998752",
        "meta_mean_motion": 15.80537689,
        "meta_eccentricity": 0.0001759,
        "meta_inclination": 42.9986,
        "meta_ra_of_asc_node": 253.7888,
        "meta_arg_of_pericenter": 262.8527,
        "meta_mean_anomaly": 21.4715,
        "meta_ephemeris_type": 0,
        "meta_classification_type": "U",
        "meta_norad_cat_id": 66596,
        "meta_element_set_no": 999,
        "meta_rev_at_epoch": 286,
        "meta_bstar": -0.0098477,
        "meta_mean_motion_dot": -0.01713975,
        "meta_mean_motion_ddot": 0,
        "tle_line1": "1 66596U 25270J   25336.50006943 -.01713975  00000+0 -98477-2 0  9995",
        "tle_line2": "2 66596  42.9986 253.7888 0001759 262.8527  21.4715 15.80537689  2865"
      },
      "geometry": {
        "type": "Point",
        "coordinates": [
          -82.6724038366711,
          22.200027404277755
        ]
      }
    },
    {
      "type": "Feature",
      "properties": {
        "norad_id": 66597,
        "name": "STARLINK-35820",
        "group": "last-30-days",
        "lat": 23.398056535898583,
        "lon": -80.98204405807832,
        "alt_km": 330.25978537451374,
        "timestamp": "2025-12-02T21:34:00.043562+00:00",
        "meta_object_name": "STARLINK-35820",
        "meta_object_id": "2025-270K",
        "meta_epoch": "2025-12-02T12:00:05.998752",
        "meta_mean_motion": 15.80535664,
        "meta_eccentricity": 0.0001828,
        "meta_inclination": 42.9989,
        "meta_ra_of_asc_node": 253.784,
        "meta_arg_of_pericenter": 263.7676,
        "meta_mean_anomaly": 22.5263,
        "meta_ephemeris_type": 0,
        "meta_classification_type": "U",
        "meta_norad_cat_id": 66597,
        "meta_element_set_no": 999,
        "meta_rev_at_epoch": 286,
        "meta_bstar": -0.0098472,
        "meta_mean_motion_dot": -0.01713811,
        "meta_mean_motion_ddot": 0,
        "tle_line1": "1 66597U 25270K   25336.50006943 -.01713811  00000+0 -98472-2 0  9990",
        "tle_line2": "2 66597  42.9989 253.7840 0001828 263.7676  22.5263 15.80535664  2860"
      },
      "geometry": {
        "type": "Point",
        "coordinates": [
          -80.98204405807832,
          23.398056535898583
        ]
      }
    },
    {
      "type": "Feature",
      "properties": {
        "norad_id": 66598,
        "name": "STARLINK-35981",
        "group": "last-30-days",
        "lat": 24.649838808281118,
        "lon": -79.15318148656495,
        "alt_km": 330.37354411080105,
        "timestamp": "2025-12-02T21:34:00.043592+00:00",
        "meta_object_name": "STARLINK-35981",
        "meta_object_id": "2025-270L",
        "meta_epoch": "2025-12-02T12:00:05.998752",
        "meta_mean_motion": 15.80525016,
        "meta_eccentricity": 0.0001823,
        "meta_inclination": 42.9987,
        "meta_ra_of_asc_node": 253.7785,
        "meta_arg_of_pericenter": 255.0781,
        "meta_mean_anomaly": 33.3416,
        "meta_ephemeris_type": 0,
        "meta_classification_type": "U",
        "meta_norad_cat_id": 66598,
        "meta_element_set_no": 999,
        "meta_rev_at_epoch": 259,
        "meta_bstar": -0.010015,
        "meta_mean_motion_dot": -0.01738788,
        "meta_mean_motion_ddot": 0,
        "tle_line1": "1 66598U 25270L   25336.50006943 -.01738788  00000+0 -10015-1 0  9997",
        "tle_line2": "2 66598  42.9987 253.7785 0001823 255.0781  33.3416 15.80525016  2593"
      },
      "geometry": {
        "type": "Point",
        "coordinates": [
          -79.15318148656495,
          24.649838808281118
        ]
      }
    },
    {
      "type": "Feature",
      "properties": {
        "norad_id": 66599,
        "name": "STARLINK-35930",
        "group": "last-30-days",
        "lat": 25.779022039688034,
        "lon": -77.44193489159109,
        "alt_km": 330.16801107220635,
        "timestamp": "2025-12-02T21:34:00.043603+00:00",
        "meta_object_name": "STARLINK-35930",
        "meta_object_id": "2025-270M",
        "meta_epoch": "2025-12-02T12:00:05.998752",
        "meta_mean_motion": 15.8053815,
        "meta_eccentricity": 0.000183,
        "meta_inclination": 42.9989,
        "meta_ra_of_asc_node": 253.774,
        "meta_arg_of_pericenter": 256.9468,
        "meta_mean_anomaly": 33.3752,
        "meta_ephemeris_type": 0,
        "meta_classification_type": "U",
        "meta_norad_cat_id": 66599,
        "meta_element_set_no": 999,
        "meta_rev_at_epoch": 275,
        "meta_bstar": -0.010043,
        "meta_mean_motion_dot": -0.01744002,
        "meta_mean_motion_ddot": 0,
        "tle_line1": "1 66599U 25270M   25336.50006943 -.01744002  00000+0 -10043-1 0  9995",
        "tle_line2": "2 66599  42.9989 253.7740 0001830 256.9468  33.3752 15.80538150  2751"
      },
      "geometry": {
        "type": "Point",
        "coordinates": [
          -77.44193489159109,
          25.779022039688034
        ]
      }
    },
    {
      "type": "Feature",
      "properties": {
        "norad_id": 66600,
        "name": "STARLINK-35980",
        "group": "last-30-days",
        "lat": 26.965899845786282,
        "lon": -75.57264480805713,
        "alt_km": 329.9533734994757,
        "timestamp": "2025-12-02T21:34:00.043616+00:00",
        "meta_object_name": "STARLINK-35980",
        "meta_object_id": "2025-270N",
        "meta_epoch": "2025-12-02T12:00:05.998752",
        "meta_mean_motion": 15.80520598,
        "meta_eccentricity": 0.0001755,
        "meta_inclination": 42.9989,
        "meta_ra_of_asc_node": 253.7686,
        "meta_arg_of_pericenter": 261.2456,
        "meta_mean_anomaly": 31.1599,
        "meta_ephemeris_type": 0,
        "meta_classification_type": "U",
        "meta_norad_cat_id": 66600,
        "meta_element_set_no": 999,
        "meta_rev_at_epoch": 265,
        "meta_bstar": -0.01009,
        "meta_mean_motion_dot": -0.01749918,
        "meta_mean_motion_ddot": 0,
        "tle_line1": "1 66600U 25270N   25336.50006943 -.01749918  00000+0 -10090-1 0  9991",
        "tle_line2": "2 66600  42.9989 253.7686 0001755 261.2456  31.1599 15.80520598  2656"
      },
      "geometry": {
        "type": "Point",
        "coordinates": [
          -75.57264480805713,
          26.965899845786282
        ]
      }
    }
  ]
}